NORAD_CAT_ID,OBJECT_NAME,OBJECT_TYPE,EPOCH,MEAN_MOTION,ECCENTRICITY,INCLINATION,RA_OF_ASC_NODE,ARG_OF_PERICENTER,MEAN_ANOMALY,BSTAR,MEAN_MOTION_DOT,MEAN_MOTION_DDOT,TLE_LINE0,TLE_LINE1,TLE_LINE2,SEMIMAJOR_AXIS,PERIOD,APOGEE,PERIGEE,DECAYED
53857.0,STARLINK-4809,PAYLOAD,2022-12-09 14:00:01,15.26626328,0.0001426999999999,53.2168,218.7787,74.6096,131.9221,-0.049688,-0.01212455,0.0,0 STARLINK-4809,1 53857U 22114AR  22343.58334491 -.01212455  00000-0 -49688-1 0  9997,2 53857  53.2168 218.7787 0001427  74.6096 131.9221 15.26626328  1305,6864.043000000002,94.326,486.888,484.929,0.0
53857.0,STARLINK-4809,PAYLOAD,2022-12-09 16:00:00,15.26378572,0.0001264,53.2173,218.3942,78.1975,226.5514,-0.047237,-0.0113404,0.0,0 STARLINK-4809,1 53857U 22114AR  22343.66667824 -.01134040  00000-0 -47237-1 0  9996,2 53857  53.2173 218.3942 0001264  78.1975 226.5514 15.26378572 13375,6864.786,94.341,487.519,485.783,0.0
53857.0,STARLINK-4809,PAYLOAD,2022-12-10 14:00:01,15.24139934,0.000125,53.2174,214.1736,78.7388,222.1338,-0.050505,-0.0114831,0.0,0 STARLINK-4809,1 53857U 22114AR  22344.58334491 -.01148310  00000-0 -50505-1 0  9996,2 53857  53.2174 214.1736 0001250  78.7388 222.1338 15.24139934  1301,6871.505999999999,94.48,494.23,492.512,0.0
53857.0,STARLINK-4809,PAYLOAD,2022-12-10 16:00:00,15.2393676,0.000123,53.2175,213.791,70.5205,327.8143,-0.050784,-0.01147685,0.0,0 STARLINK-4809,1 53857U 22114AR  22344.66667824 -.01147685  00000-0 -50784-1 0  9997,2 53857  53.2175 213.7910 0001230  70.5205 327.8143 15.23936760 13533,6872.1169999999975,94.492,494.827,493.137,0.0
53857.0,STARLINK-4809,PAYLOAD,2022-12-11 00:00:00,15.23125441,0.0001291,53.2175,212.2623,69.8394,357.7331,-0.052261,-0.01152378,0.0,0 STARLINK-4809,1 53857U 22114AR  22345.00001157 -.01152378  00000-0 -52261-1 0  9994,2 53857  53.2175 212.2623 0001291  69.8394 357.7331 15.23125441  1304,6874.557,94.542,497.31,495.535,0.0
53857.0,STARLINK-4809,PAYLOAD,2022-12-11 14:00:01,15.21697928,0.0001168,53.2173,209.5862,91.0546,295.3367,-0.054226,-0.0114651,0.0,0 STARLINK-4809,1 53857U 22114AR  22345.58334491 -.01146510  00000-0 -54226-1 0  9991,2 53857  53.2173 209.5862 0001168  91.0546 295.3367 15.21697928  1303,6878.856,94.631,501.524,499.917,0.0
53857.0,STARLINK-4809,PAYLOAD,2022-12-11 16:00:00,15.21495707,0.0001333,53.2176,209.2049,86.7285,36.3915,-0.054625,-0.01147973,0.0,0 STARLINK-4809,1 53857U 22114AR  22345.66667824 -.01147973  00000-0 -54625-1 0  9996,2 53857  53.2176 209.2049 0001333  86.7285  36.3915 15.21495707 13682,6879.465,94.644,502.247,500.413,0.0
53857.0,STARLINK-4809,PAYLOAD,2022-12-11 22:00:01,15.208877800000002,0.0001267,53.2174,208.0627,72.3173,340.6855,-0.055849,-0.0115245,0.0,0 STARLINK-4809,1 53857U 22114AR  22345.91668981 -.01152450  00000-0 -55849-1 0  9994,2 53857  53.2174 208.0627 0001267  72.3173 340.6855 15.20887780  1307,6881.2980000000025,94.682,504.035,502.292,0.0
53857.0,STARLINK-4809,PAYLOAD,2022-12-12 14:00:01,15.19257937,0.0001337,53.2174,205.0158,74.8633,28.2455,-0.058337,-0.01148015,0.0,0 STARLINK-4809,1 53857U 22114AR  22346.58334491 -.01148015  00000-0 -58337-1 0  9991,2 53857  53.2174 205.0158 0001337  74.8633  28.2455 15.19257937  1307,6886.219,94.783,509.005,507.163,0.0
53857.0,STARLINK-4809,PAYLOAD,2022-12-12 16:00:01,15.19054405,0.0001435,53.2176,204.6363,79.9795,119.1882,-0.058661,-0.01147614,0.0,0 STARLINK-4809,1 53857U 22114AR  22346.66668981 -.01147614  00000-0 -58661-1 0  9998,2 53857  53.2176 204.6363 0001435  79.9795 119.1882 15.19054405 13836,6886.834,94.796,509.687,507.711,0.0
53857.0,STARLINK-4809,PAYLOAD,2022-12-12 22:00:00,15.18445542,0.0001506999999999,53.2173,203.4982,61.9489,64.7752,-0.059879,-0.0115064,0.0,0 STARLINK-4809,1 53857U 22114AR  22346.91667824 -.01150640  00000-0 -59879-1 0  9996,2 53857  53.2173 203.4982 0001507  61.9489  64.7752 15.18445542  1303,6888.675,94.834,511.578,509.502,0.0
53857.0,STARLINK-4809,PAYLOAD,2022-12-13 14:00:01,15.16817113,0.000149,53.2175,200.4628,69.6322,101.3934,-0.062618,-0.01148149,0.0,0 STARLINK-4809,1 53857U 22114AR  22347.58334491 -.01148149  00000-0 -62618-1 0  9997,2 53857  53.2175 200.4628 0001490  69.6322 101.3934 15.16817113 13972,6893.604,94.936,516.497,514.442,0.0
53857.0,STARLINK-4809,PAYLOAD,2022-12-13 22:00:00,15.16002677,0.0001488,53.2174,198.9507,74.2824,117.4259,-0.064065,-0.01147581,0.0,0 STARLINK-4809,1 53857U 22114AR  22347.91667824 -.01147581  00000-0 -64065-1 0  9990,2 53857  53.2174 198.9507 0001488  74.2824 117.4259 15.16002677  1307,6896.073,94.987,518.964,516.9119999999998,0.0
53857.0,STARLINK-4809,PAYLOAD,2022-12-14 14:00:01,15.14388101,0.0001582,53.217,195.9268,62.9061,167.2298,-0.068151,-0.01164432,0.0,0 STARLINK-4809,1 53857U 22114AR  22348.58334491 -.01164432  00000-0 -68151-1 0  9999,2 53857  53.2170 195.9268 0001582  62.9061 167.2298 15.14388101  1309,6900.974,95.088,523.931,521.747,0.0
53857.0,STARLINK-4809,PAYLOAD,2022-12-14 16:00:01,15.14171619,0.0001403,53.2174,195.5498,58.9857,265.7488,-0.067455,-0.01146911,0.0,0 STARLINK-4809,1 53857U 22114AR  22348.66668981 -.01146911  00000-0 -67455-1 0  9990,2 53857  53.2174 195.5498 0001403  58.9857 265.7488 15.14171619 14138,6901.632,95.102,524.465,522.528,0.0
53857.0,STARLINK-4809,PAYLOAD,2022-12-14 22:00:00,15.13537222,0.0001453999999999,53.2173,194.4201,69.8201,178.0822,-0.066439,-0.01112346,0.0,0 STARLINK-4809,1 53857U 22114AR  22348.91667824 -.01112346  00000-0 -66439-1 0  9999,2 53857  53.2173 194.4201 0001454  69.8201 178.0822 15.13537222  1305,6903.56,95.141,526.429,524.4209999999998,0.0
53857.0,STARLINK-4809,PAYLOAD,2022-12-15 14:00:01,15.11933245,0.0001441999999999,53.2176,191.4075,63.163,217.2953,-0.071721,-0.01145063,0.0,0 STARLINK-4809,1 53857U 22114AR  22349.58334491 -.01145063  00000-0 -71721-1 0  9996,2 53857  53.2176 191.4075 0001442  63.1630 217.2953 15.11933245  1308,6908.441999999999,95.242,531.303,529.311,0.0
53857.0,STARLINK-4809,PAYLOAD,2022-12-15 16:00:00,15.11730999,0.0001399,53.2177,191.0323,54.613,319.6405,-0.072308,-0.01147688,0.0,0 STARLINK-4809,1 53857U 22114AR  22349.66667824 -.01147688  00000-0 -72308-1 0  9991,2 53857  53.2177 191.0323 0001399  54.6130 319.6405 15.11730999 14294,6909.058000000001,95.255,531.889,529.956,0.0
53857.0,STARLINK-4809,PAYLOAD,2022-12-15 22:00:00,15.11119446,0.0001564999999999,53.2176,189.9068,52.5769,242.6968,-0.073401,-0.01145519,0.0,0 STARLINK-4809,1 53857U 22114AR  22349.91667824 -.01145519  00000-0 -73401-1 0  9995,2 53857  53.2176 189.9068 0001565  52.5769 242.6968 15.11119446  1300,6910.922,95.294,533.868,531.705,0.0
53857.0,STARLINK-4809,PAYLOAD,2022-12-16 14:00:01,15.0938513,0.0001527,53.217,186.9055,47.1024,274.8762,-0.043134,-0.00653001,0.0,0 STARLINK-4809,1 53857U 22114AR  22350.58334491 -.00653001  00000-0 -43134-1 0  9990,2 53857  53.2170 186.9055 0001527  47.1024 274.8762 15.09385130  1300,6916.215,95.403,539.136,537.024,0.0
53857.0,STARLINK-4809,PAYLOAD,2022-12-16 22:00:00,15.08832793,0.0001679,53.2176,185.4102,47.7929,286.161,0.00035553,5.374e-05,0.0,0 STARLINK-4809,1 53857U 22114AR  22350.91667824  .00005374  00000-0  35553-3 0  9996,2 53857  53.2176 185.4102 0001679  47.7929 286.1610 15.08832793  1300,6917.901999999999,95.438,540.929,538.606,0.0
53857.0,STARLINK-4809,PAYLOAD,2022-12-17 00:00:00,15.08834609,0.0001659,53.2175,185.0362,50.5437,16.3066,0.00027246,4.05e-05,0.0,0 STARLINK-4809,1 53857U 22114AR  22351.00001157  .00004050  00000-0  27246-3 0  9998,2 53857  53.2175 185.0362 0001659  50.5437  16.3066 15.08834609 14497,6917.897,95.438,540.91,538.614,0.0
53857.0,STARLINK-4809,PAYLOAD,2022-12-17 14:00:01,15.0885167,0.0001368,53.2143,182.4162,61.149,295.9139,-3.8057e-05,-8.94e-06,0.0,0 STARLINK-4809,1 53857U 22114AR  22351.58335648 -.00000894  00000-0 -38057-4 0  9993,2 53857  53.2143 182.4162 0001368  61.1490 295.9139 15.08851670  1304,6917.845,95.437,540.656,538.763,0.0
53857.0,STARLINK-4809,PAYLOAD,2022-12-17 22:00:00,15.08830539,0.0001530999999999,53.2141,180.9215,52.924,315.6876,0.0017383,0.00027478,0.0,0 STARLINK-4809,1 53857U 22114AR  22351.91667824  .00027478  00000-0  17383-2 0  9996,2 53857  53.2141 180.9215 0001531  52.9240 315.6876 15.08830539  1306,6917.909000000002,95.438,540.8330000000002,538.715,0.0
53857.0,STARLINK-4809,PAYLOAD,2022-12-18 14:00:01,15.08862292,0.0001423,53.2143,177.9267,60.5833,331.2263,-0.00045426,-7.515e-05,0.0,0 STARLINK-4809,1 53857U 22114AR  22352.58334491 -.00007515  00000-0 -45426-3 0  9993,2 53857  53.2143 177.9267 0001423  60.5833 331.2263 15.08862292  1309,6917.812,95.436,540.6619999999998,538.693,0.0
53857.0,STARLINK-4809,PAYLOAD,2022-12-18 22:00:00,15.08838186,0.0001606,53.2142,176.4323,51.9343,351.5013,0.0022177,0.00035182,0.0,0 STARLINK-4809,1 53857U 22114AR  22352.91667824  .00035182  00000-0  22177-2 0  9995,2 53857  53.2142 176.4323 0001606  51.9343 351.5013 15.08838186  1301,6917.886,95.438,540.862,538.64,0.0
53857.0,STARLINK-4809,PAYLOAD,2022-12-19 08:00:01,15.08839285,0.0001423,53.2147,174.5595,56.2129,91.7343,0.0019948,0.00031601,0.0,0 STARLINK-4809,1 53857U 22114AR  22353.33334491  .00031601  00000-0  19948-2 0  9997,2 53857  53.2147 174.5595 0001423  56.2129  91.7343 15.08839285 14846,6917.8830000000025,95.438,540.732,538.763,0.0
53857.0,STARLINK-4809,PAYLOAD,2022-12-19 10:00:00,15.08838688,0.0001426999999999,53.2148,174.1849,57.9193,182.9306,0.0025213,0.00040065,0.0,0 STARLINK-4809,1 53857U 22114AR  22353.41667824  .00040065  00000-0  25213-2 0  9991,2 53857  53.2148 174.1849 0001427  57.9193 182.9306 15.08838688  1303,6917.884,95.438,540.737,538.762,0.0
53857.0,STARLINK-4809,PAYLOAD,2022-12-19 22:00:00,15.08842356,0.0001496,53.2169,171.9429,45.1419,33.1372,-0.00059317,-9.716e-05,0.0,0 STARLINK-4809,1 53857U 22114AR  22353.91667824 -.00009716  00000-0 -59317-3 0  9999,2 53857  53.2169 171.9429 0001496  45.1419  33.1372 15.08842356  1308,6917.873000000001,95.437,540.773,538.703,0.0
